CCSDS_OMM_VERS = 2.0
CREATION_DATE  = 
ORIGINATOR     = 

OBJECT_NAME    = 2025-313AJ
OBJECT_ID      = 2025-313AJ
CENTER_NAME    = EARTH
REF_FRAME      = TEME
TIME_SYSTEM    = UTC
MEAN_ELEMENT_THEORY = SGP/SGP4

EPOCH          = 2026-01-20T04:24:31.916736
MEAN_MOTION    = 15.20639593
ECCENTRICITY   = .00143413
INCLINATION    = 97.4163
RA_OF_ASC_NODE = 97.2817
ARG_OF_PERICENTER = 155.0112
MEAN_ANOMALY   = 205.1821

EPHEMERIS_TYPE = 0
CLASSIFICATION_TYPE = U
NORAD_CAT_ID   = 67280
ELEMENT_SET_NO = 999
REV_AT_EPOCH   = 344
BSTAR          = .44524229E-3
MEAN_MOTION_DOT = .9732E-4
MEAN_MOTION_DDOT = 0

CCSDS_OMM_VERS = 2.0
CREATION_DATE  = 
ORIGINATOR     = 

OBJECT_NAME    = 2025-313AK
OBJECT_ID      = 2025-313AK
CENTER_NAME    = EARTH
REF_FRAME      = TEME
TIME_SYSTEM    = UTC
MEAN_ELEMENT_THEORY = SGP/SGP4

EPOCH          = 2026-01-20T01:13:05.099808
MEAN_MOTION    = 15.20726951
ECCENTRICITY   = .00130449
INCLINATION    = 97.4048
RA_OF_ASC_NODE = 97.1304
ARG_OF_PERICENTER = 154.3402
MEAN_ANOMALY   = 205.8483

EPHEMERIS_TYPE = 0
CLASSIFICATION_TYPE = U
NORAD_CAT_ID   = 67281
ELEMENT_SET_NO = 999
REV_AT_EPOCH   = 342
BSTAR          = .3636589E-3
MEAN_MOTION_DOT = .7951E-4
MEAN_MOTION_DDOT = 0

CCSDS_OMM_VERS = 2.0
CREATION_DATE  = 
ORIGINATOR     = 

OBJECT_NAME    = 2025-313AL
OBJECT_ID      = 2025-313AL
CENTER_NAME    = EARTH
REF_FRAME      = TEME
TIME_SYSTEM    = UTC
MEAN_ELEMENT_THEORY = SGP/SGP4

EPOCH          = 2026-01-20T04:14:43.080864
MEAN_MOTION    = 15.21112424
ECCENTRICITY   = .00118123
INCLINATION    = 97.4097
RA_OF_ASC_NODE = 97.2696
ARG_OF_PERICENTER = 152.9651
MEAN_ANOMALY   = 207.2203

EPHEMERIS_TYPE = 0
CLASSIFICATION_TYPE = U
NORAD_CAT_ID   = 67282
ELEMENT_SET_NO = 999
REV_AT_EPOCH   = 344
BSTAR          = .45899021E-3
MEAN_MOTION_DOT = .10167E-3
MEAN_MOTION_DDOT = 0

CCSDS_OMM_VERS = 2.0
CREATION_DATE  = 
ORIGINATOR     = 

OBJECT_NAME    = HORS 5
OBJECT_ID      = 2025-313AM
CENTER_NAME    = EARTH
REF_FRAME      = TEME
TIME_SYSTEM    = UTC
MEAN_ELEMENT_THEORY = SGP/SGP4

EPOCH          = 2026-01-20T01:03:25.096608
MEAN_MOTION    = 15.21266897
ECCENTRICITY   = .00116709
INCLINATION    = 97.4104
RA_OF_ASC_NODE = 97.1444
ARG_OF_PERICENTER = 153.3818
MEAN_ANOMALY   = 206.8019

EPHEMERIS_TYPE = 0
CLASSIFICATION_TYPE = U
NORAD_CAT_ID   = 67283
ELEMENT_SET_NO = 999
REV_AT_EPOCH   = 342
BSTAR          = .57071212E-3
MEAN_MOTION_DOT = .12719E-3
MEAN_MOTION_DDOT = 0

CCSDS_OMM_VERS = 2.0
CREATION_DATE  = 
ORIGINATOR     = 

OBJECT_NAME    = LOBACHEVSKY (RS83S)
OBJECT_ID      = 2025-313AN
CENTER_NAME    = EARTH
REF_FRAME      = TEME
TIME_SYSTEM    = UTC
MEAN_ELEMENT_THEORY = SGP/SGP4

EPOCH          = 2026-01-20T01:05:42.825120
MEAN_MOTION    = 15.21034069
ECCENTRICITY   = .0011716
INCLINATION    = 97.4090
RA_OF_ASC_NODE = 97.1374
ARG_OF_PERICENTER = 153.2388
MEAN_ANOMALY   = 206.9454

EPHEMERIS_TYPE = 0
CLASSIFICATION_TYPE = U
NORAD_CAT_ID   = 67284
ELEMENT_SET_NO = 999
REV_AT_EPOCH   = 342
BSTAR          = .23871573E-3
MEAN_MOTION_DOT = .5239E-4
MEAN_MOTION_DDOT = 0

CCSDS_OMM_VERS = 2.0
CREATION_DATE  = 
ORIGINATOR     = 

OBJECT_NAME    = NASBSAT-2
OBJECT_ID      = 2025-313AP
CENTER_NAME    = EARTH
REF_FRAME      = TEME
TIME_SYSTEM    = UTC
MEAN_ELEMENT_THEORY = SGP/SGP4

EPOCH          = 2026-01-20T02:36:42.715008
MEAN_MOTION    = 15.21325537
ECCENTRICITY   = .00113269
INCLINATION    = 97.4081
RA_OF_ASC_NODE = 97.2029
ARG_OF_PERICENTER = 154.5460
MEAN_ANOMALY   = 205.6336

EPHEMERIS_TYPE = 0
CLASSIFICATION_TYPE = U
NORAD_CAT_ID   = 67285
ELEMENT_SET_NO = 999
REV_AT_EPOCH   = 343
BSTAR          = .61402994E-3
MEAN_MOTION_DOT = .13714E-3
MEAN_MOTION_DDOT = 0

CCSDS_OMM_VERS = 2.0
CREATION_DATE  = 
ORIGINATOR     = 

OBJECT_NAME    = 2025-313AQ
OBJECT_ID      = 2025-313AQ
CENTER_NAME    = EARTH
REF_FRAME      = TEME
TIME_SYSTEM    = UTC
MEAN_ELEMENT_THEORY = SGP/SGP4

EPOCH          = 2026-01-20T05:45:21.290400
MEAN_MOTION    = 15.21333471
ECCENTRICITY   = .00109677
INCLINATION    = 97.4101
RA_OF_ASC_NODE = 97.3483
ARG_OF_PERICENTER = 149.0433
MEAN_ANOMALY   = 211.1451

EPHEMERIS_TYPE = 0
CLASSIFICATION_TYPE = U
NORAD_CAT_ID   = 67286
ELEMENT_SET_NO = 999
REV_AT_EPOCH   = 345
BSTAR          = .87074852E-3
MEAN_MOTION_DOT = .19494E-3
MEAN_MOTION_DDOT = 0

CCSDS_OMM_VERS = 2.0
CREATION_DATE  = 
ORIGINATOR     = 

OBJECT_NAME    = LUCA (RS90S)
OBJECT_ID      = 2025-313AR
CENTER_NAME    = EARTH
REF_FRAME      = TEME
TIME_SYSTEM    = UTC
MEAN_ELEMENT_THEORY = SGP/SGP4

EPOCH          = 2026-01-20T04:09:10.687968
MEAN_MOTION    = 15.21467405
ECCENTRICITY   = .00108396
INCLINATION    = 97.4103
RA_OF_ASC_NODE = 97.2856
ARG_OF_PERICENTER = 150.9958
MEAN_ANOMALY   = 209.1882

EPHEMERIS_TYPE = 0
CLASSIFICATION_TYPE = U
NORAD_CAT_ID   = 67287
ELEMENT_SET_NO = 999
REV_AT_EPOCH   = 344
BSTAR          = .57570752E-3
MEAN_MOTION_DOT = .12904E-3
MEAN_MOTION_DDOT = 0

CCSDS_OMM_VERS = 2.0
CREATION_DATE  = 
ORIGINATOR     = 

OBJECT_NAME    = 2025-313AS
OBJECT_ID      = 2025-313AS
CENTER_NAME    = EARTH
REF_FRAME      = TEME
TIME_SYSTEM    = UTC
MEAN_ELEMENT_THEORY = SGP/SGP4

EPOCH          = 2026-01-20T04:11:06.068256
MEAN_MOTION    = 15.21281218
ECCENTRICITY   = .00127576
INCLINATION    = 97.4091
RA_OF_ASC_NODE = 97.2788
ARG_OF_PERICENTER = 144.0836
MEAN_ANOMALY   = 216.1260

EPHEMERIS_TYPE = 0
CLASSIFICATION_TYPE = U
NORAD_CAT_ID   = 67288
ELEMENT_SET_NO = 999
REV_AT_EPOCH   = 344
BSTAR          = .45217155E-3
MEAN_MOTION_DOT = .10067E-3
MEAN_MOTION_DDOT = 0

CCSDS_OMM_VERS = 2.0
CREATION_DATE  = 
ORIGINATOR     = 

OBJECT_NAME    = NASBSAT-1
OBJECT_ID      = 2025-313AT
CENTER_NAME    = EARTH
REF_FRAME      = TEME
TIME_SYSTEM    = UTC
MEAN_ELEMENT_THEORY = SGP/SGP4

EPOCH          = 2026-01-20T05:41:33.134784
MEAN_MOTION    = 15.21668148
ECCENTRICITY   = .00107084
INCLINATION    = 97.4102
RA_OF_ASC_NODE = 97.3528
ARG_OF_PERICENTER = 151.3547
MEAN_ANOMALY   = 208.8280

EPHEMERIS_TYPE = 0
CLASSIFICATION_TYPE = U
NORAD_CAT_ID   = 67289
ELEMENT_SET_NO = 999
REV_AT_EPOCH   = 345
BSTAR          = .13049069E-2
MEAN_MOTION_DOT = .29574E-3
MEAN_MOTION_DDOT = 0

CCSDS_OMM_VERS = 2.0
CREATION_DATE  = 
ORIGINATOR     = 

OBJECT_NAME    = SAKHACUBE-CHOLBON (RS18S)
OBJECT_ID      = 2025-313AU
CENTER_NAME    = EARTH
REF_FRAME      = TEME
TIME_SYSTEM    = UTC
MEAN_ELEMENT_THEORY = SGP/SGP4

EPOCH          = 2026-01-20T00:58:04.060128
MEAN_MOTION    = 15.21548626
ECCENTRICITY   = .00106352
INCLINATION    = 97.4103
RA_OF_ASC_NODE = 97.1572
ARG_OF_PERICENTER = 151.0632
MEAN_ANOMALY   = 209.1195

EPHEMERIS_TYPE = 0
CLASSIFICATION_TYPE = U
NORAD_CAT_ID   = 67290
ELEMENT_SET_NO = 999
REV_AT_EPOCH   = 342
BSTAR          = .70228934E-3
MEAN_MOTION_DOT = .15799E-3
MEAN_MOTION_DDOT = 0

CCSDS_OMM_VERS = 2.0
CREATION_DATE  = 
ORIGINATOR     = 

OBJECT_NAME    = QMR-KWT-2 (RS95S)
OBJECT_ID      = 2025-313AV
CENTER_NAME    = EARTH
REF_FRAME      = TEME
TIME_SYSTEM    = UTC
MEAN_ELEMENT_THEORY = SGP/SGP4

EPOCH          = 2026-01-20T00:57:05.382432
MEAN_MOTION    = 15.21650617
ECCENTRICITY   = .00103495
INCLINATION    = 97.4099
RA_OF_ASC_NODE = 97.1594
ARG_OF_PERICENTER = 150.6700
MEAN_ANOMALY   = 209.5119

EPHEMERIS_TYPE = 0
CLASSIFICATION_TYPE = U
NORAD_CAT_ID   = 67291
ELEMENT_SET_NO = 999
REV_AT_EPOCH   = 342
BSTAR          = .81780336E-3
MEAN_MOTION_DOT = .1847E-3
MEAN_MOTION_DDOT = 0

