2025-313AJ              
1 67280U 25313AJ  26020.18370274  .00009732  00000+0  44524-3 0  9991
2 67280  97.4163  97.2817 0014341 155.0112 205.1821 15.20639593  3440
2025-313AK              
1 67281U 25313AK  26020.05075347  .00007951  00000+0  36366-3 0  9997
2 67281  97.4048  97.1304 0013044 154.3402 205.8483 15.20726951  3420
2025-313AL              
1 67282U 25313AL  26020.17688751  .00010167  00000+0  45899-3 0  9994
2 67282  97.4097  97.2696 0011812 152.9651 207.2203 15.21112424  3444
HORS 5                  
1 67283U 25313AM  26020.04404047  .00012719  00000+0  57071-3 0  9995
2 67283  97.4104  97.1444 0011670 153.3818 206.8019 15.21266897  3428
LOBACHEVSKY (RS83S)     
1 67284U 25313AN  26020.04563455  .00005239  00000+0  23872-3 0  9996
2 67284  97.4090  97.1374 0011716 153.2388 206.9454 15.21034069  3425
NASBSAT-2               
1 67285U 25313AP  26020.10882772  .00013714  00000+0  61403-3 0  9999
2 67285  97.4081  97.2029 0011326 154.5460 205.6336 15.21325537  3435
2025-313AQ              
1 67286U 25313AQ  26020.23982975  .00019494  00000+0  87075-3 0  9994
2 67286  97.4101  97.3483 0010967 149.0433 211.1451 15.21333471  3451
LUCA (RS90S)            
1 67287U 25313AR  26020.17304037  .00012904  00000+0  57571-3 0  9992
2 67287  97.4103  97.2856 0010839 150.9958 209.1882 15.21467405  3447
2025-313AS              
1 67288U 25313AS  26020.17437579  .00010067  00000+0  45217-3 0  9993
2 67288  97.4091  97.2788 0012757 144.0836 216.1260 15.21281218  3442
NASBSAT-1               
1 67289U 25313AT  26020.23718906  .00029574  00000+0  13049-2 0  9997
2 67289  97.4102  97.3528 0010708 151.3547 208.8280 15.21668148  3455
SAKHACUBE-CHOLBON (RS1*)
1 67290U 25313AU  26020.04032477  .00015799  00000+0  70229-3 0  9998
2 67290  97.4103  97.1572 0010635 151.0632 209.1195 15.21548626  3420
QMR-KWT-2 (RS95S)       
1 67291U 25313AV  26020.03964563  .00018470  00000+0  81780-3 0  9991
2 67291  97.4099  97.1594 0010349 150.6700 209.5119 15.21650617  3426
